namespace Air_BOT_Testing
{
    public class Helps
    {
        //2019112118 - METAR SBMG 211800Z VRB02KT 9999 SCT040 FEW050TCU 33/18 Q1010=
        //*2019112118 - METAR SBMG 211800Z VRB02KT 1500 SCT040 FEW050TCU 33/18 Q1010= testing
        //2019111816 - METAR SBEG 181600Z 03007KT 9999 SCT020 SCT100 30/24 Q1010=
        //2019112016 - METAR SBEG 201600Z 31002KT 9999 BKN015 BKN100 28/24 Q1012=
        //2019112115 - METAR SBMG 211500Z 02005KT 330V100 CAVOK 31/19 Q1013=
        //2019112117 - METAR SBSL 211700Z 08004KT 9000 TS VCSH BKN015 FEW025CB 25/24 Q1009 RETS=
        //2019112211 - METAR SBKP 221100Z 05005KT CAVOK 25/16 Q1015=
        //2019112200 - METAR SBMG 220000Z 10005KT 9999 VCTS FEW030 FEW040CB 28/18 Q1011=
        //2019112216 - METAR SBBV 221600Z 28003KT 9999 VCSH BKN007 BKN020 FEW025TCU BKN080 24/22 Q1013=
        //2019112216 - METAR SBSM 221600Z 24004KT 160V310 9999 FEW007 SCT040 BKN100 25/24 Q1010 RETSRA=
        //2019112216 - METAR SBCG 221600Z VRB07KT 9999 VCTS BKN045 FEW050CB 33/19 Q1011=
        //2019112217 - METAR SBCG 221700Z 03017KT 9999 VCSH VCTS BKN045 FEW050CB SCT100 32/20 Q1010=
        //2019112218 - METAR SBFL 221800Z 01015KT CAVOK 29/23 Q1006=
        //2019112315 - METAR SBCH 231300Z 15016KT 9999 SCT015 25/18 Q1016= 2019112315 - SPECI SBCH 231325Z 13020KT 9999 SCT015 27/19 Q1016=
        //2019112319 - METAR SBMG 231900Z 24023G41KT 240V320 9999 3000NW -RA SCT020TCU 27/19 Q1008=
        //2019112517 - METAR SBBR 251700Z 26007KT 8000 -RA VCTS FEW010 BKN030 FEW035CB BKN100 20/19 Q1016=
        //2019112518 - METAR SBBR 251800Z VRB02KT 8000 -TSRA BKN025 FEW030CB BKN100 21/19 Q1015=
        //2019112519 - METAR SBBR 251900Z 18003KT 150V260 9999 BKN025 FEW030TCU BKN100 21/20 Q1015 RETS=
        //2019112617 - METAR SBGR 261700Z 00000KT 9999 BKN043 29/20 Q1014=
        //2019112617 - METAR SBMG 261700Z 01016G26KT 340V060 9999 FEW035 FEW045TCU SCT100 31/20 Q1008=
        //*2019112613 - METAR COR SBSV 261300Z 11006KT 070V170 2000 R28/1600 +RA BR BKN004 BKN010 FEW023TCU OVC060 25/22 Q1015=
        //*2019112614 - METAR SBSV 261400Z 16011KT 120V190 2000 R28/1200 RA BR BKN004 BKN010 FEW023TCU OVC060 24/22 Q1015=
    }
}