namespace Air_BOT_Testing
{
    public class Helps
    {
        //2019112118 - METAR SBMG 211800Z VRB02KT 9999 SCT040 FEW050TCU 33/18 Q1010=
        //2019111816 - METAR SBEG 181600Z 03007KT 9999 SCT020 SCT100 30/24 Q1010=
        //2019112016 - METAR SBEG 201600Z 31002KT 9999 BKN015 BKN100 28/24 Q1012=
        //2019112115 - METAR SBMG 211500Z 02005KT 330V100 CAVOK 31/19 Q1013=
        //2019112117 - METAR SBSL 211700Z 08004KT 9000 TS VCSH BKN015 FEW025CB 25/24 Q1009 RETS=
    }
}